     3.00           N                   E                   RINEX VERSION / TYPE
BRD_USR             ESA                 20190103 052344  UTCPGM / RUN BY / DATE
 GAL   3.8500E+01  7.8125E-03  5.7983E-04  0.0000E+00       IONOSPHERIC CORR
GAUT  9.3132257462E-10-8.881784197E-16 345600 2034 GSTB   0 TIME SYSTEM CORR
GPGA -2.2700987756E-09-1.154631946E-14 345600 2034 GSTB   0 TIME SYSTEM CORR
                                                            END OF HEADER
E19 2019 01 03 02 40 00-9.413808584213E-06 2.700062395888E-13 0.000000000000E+00
     8.000000000000E+01-8.718750000000E+00 3.638008680521E-09-2.440158923511E+00
    -3.539025783539E-07 1.376796280965E-04 4.453584551811E-06 5.440601953506E+03
     3.552000000000E+05 2.421438694000E-08 1.363149861898E+00-2.421438694000E-08
     9.579213345029E-01 2.428437500000E+02 2.170646397667E+00-5.767740249533E-09
    -4.857345185067E-11 2.580000000000E+02 2.034000000000E+03 0.000000000000E+00
     3.120000000000E+00 0.000000000000E+00-8.614733815193E-09 0.000000000000E+00
     3.564000000000E+05 0.000000000000E+00 0.000000000000E+00 0.000000000000E+00
E21 2019 01 03 01 50 00-5.125146126375E-04-1.904254531837E-12 0.000000000000E+00
     7.500000000000E+01 1.950625000000E+02 2.633323974228E-09-1.544584467240E+00
     8.890405297279E-06 4.946638364345E-05 7.415190339088E-06 5.440635051727E+03
     3.522000000000E+05 2.048909664154E-08-2.827121606448E+00-5.029141902924E-08
     9.898884132600E-01 1.939062500000E+02-4.624164967032E-01-5.471656487884E-09
     3.150131215609E-10 2.580000000000E+02 2.034000000000E+03 0.000000000000E+00
     3.120000000000E+00 0.000000000000E+00-2.328306436539E-09 0.000000000000E+00
     3.564000000000E+05 0.000000000000E+00 0.000000000000E+00 0.000000000000E+00
E24 2019 01 03 02 40 00 6.305874034297E-03-1.963940121641E-11 0.000000000000E+00
     8.000000000000E+01 1.674062500000E+02 2.557249376844E-09 1.829316395491E+00
     7.981434464455E-06 4.602168919519E-04 6.580725312233E-06 5.440628194809E+03
     3.552000000000E+05-8.381903171539E-08-2.821055495211E+00-1.676380634308E-08
     9.878917977958E-01 2.126250000000E+02 4.413184252895E-01-5.392010313158E-09
     2.953694461802E-10 2.580000000000E+02 2.034000000000E+03 0.000000000000E+00
     3.120000000000E+00 0.000000000000E+00 4.260800778866E-08 0.000000000000E+00
     3.564000000000E+05 0.000000000000E+00 0.000000000000E+00 0.000000000000E+00
E25 2019 01 03 02 00 00 1.935331034474E-03-1.132605120802E-11 0.000000000000E+00
     7.600000000000E+01 1.835625000000E+02 2.632966816494E-09 2.599174950047E+00
     8.476898074150E-06 2.224710769951E-04 6.191432476044E-06 5.440632316589E+03
     3.528000000000E+05 1.862645149231E-08-2.827134054418E+00 3.539025783539E-08
     9.898947476953E-01 2.214062500000E+02-1.388668472370E+00-5.417368512286E-09
     2.428672592533E-10 2.580000000000E+02 2.034000000000E+03 0.000000000000E+00
     3.120000000000E+00 0.000000000000E+00-1.164153218269E-09 0.000000000000E+00
     3.564000000000E+05 0.000000000000E+00 0.000000000000E+00 0.000000000000E+00
E26 2019 01 03 01 40 00 5.063680990133E-03-4.330047431722E-11 0.000000000000E+00
     7.400000000000E+01-1.965937500000E+02 2.544748856147E-09-2.052166668088E+00
    -9.130686521530E-06 3.271177411079E-04 8.897855877876E-06 5.440618167877E+03
     3.516000000000E+05-3.725290298462E-09-7.351425166766E-01-1.862645149231E-09
     9.783963534953E-01 1.577500000000E+02-2.134952517548E+00-5.343079703573E-09
    -1.721500278825E-10 2.580000000000E+02 2.034000000000E+03 0.000000000000E+00
     3.120000000000E+00 0.000000000000E+00 9.313225746155E-10 0.000000000000E+00
     3.564000000000E+05 0.000000000000E+00 0.000000000000E+00 0.000000000000E+00
E27 2019 01 03 01 50 00 5.575159448199E-04-7.659650691494E-12 0.000000000000E+00
     7.500000000000E+01 2.045000000000E+02 2.691897842636E-09-2.743997430850E-01
     9.447336196899E-06 2.097798278555E-04 6.573274731636E-06 5.440628721237E+03
     3.522000000000E+05-1.043081283569E-07-2.827105944447E+00-8.754432201385E-08
     9.898612395567E-01 2.125000000000E+02-9.457890008453E-01-5.429869032983E-09
     3.857303529318E-10 2.580000000000E+02 2.034000000000E+03 0.000000000000E+00
     3.120000000000E+00 0.000000000000E+00-2.561137080193E-09 0.000000000000E+00
     3.564000000000E+05 0.000000000000E+00 0.000000000000E+00 0.000000000000E+00
E30 2019 01 03 02 40 00 5.219300976023E-03-3.053912678297E-11 0.000000000000E+00
     8.000000000000E+01 1.933125000000E+02 2.701898259193E-09-5.684691526677E-01
     9.031966328621E-06 2.924465807155E-04 5.792826414108E-06 5.440623403549E+03
     3.552000000000E+05 7.264316082001E-08-2.821111081709E+00-2.048909664154E-08
     9.878761474982E-01 2.326250000000E+02 4.853784515608E-01-5.490943005531E-09
     3.157274370293E-10 2.580000000000E+02 2.034000000000E+03 0.000000000000E+00
     3.120000000000E+00 0.000000000000E+00-2.793967723846E-09 0.000000000000E+00
     3.564000000000E+05 0.000000000000E+00 0.000000000000E+00 0.000000000000E+00
E31 2019 01 03 02 40 00 9.424407617189E-04-9.663381206337E-12 0.000000000000E+00
     8.000000000000E+01 1.777812500000E+02 2.682254583813E-09-1.676679648529E+00
     8.367002010345E-06 2.596363192424E-04 7.528811693192E-06 5.440631532669E+03
     3.552000000000E+05-5.029141902924E-08-2.827170129978E+00-1.303851604462E-08
     9.898648719823E-01 1.933750000000E+02-1.527760477768E+00-5.401296414247E-09
     2.775115594704E-10 2.580000000000E+02 2.034000000000E+03 0.000000000000E+00
     3.120000000000E+00 0.000000000000E+00-2.328306436539E-10 0.000000000000E+00
     3.564000000000E+05 0.000000000000E+00 0.000000000000E+00 0.000000000000E+00
E33 2019 01 03 01 50 00 8.478570962325E-04 7.105427357601E-14 0.000000000000E+00
     7.500000000000E+01-1.796875000000E+02 2.600465462682E-09 2.911300313378E+00
    -8.322298526764E-06 3.556057345122E-04 8.108094334602E-06 5.440601940155E+03
     3.522000000000E+05 1.676380634308E-08-7.441310379189E-01 2.048909664154E-08
     9.852762626540E-01 1.775000000000E+02-1.532893474023E+00-5.336650864358E-09
    -1.671498196038E-10 2.580000000000E+02 2.034000000000E+03 0.000000000000E+00
     3.120000000000E+00 5.600000000000E+01-7.916241884232E-09 0.000000000000E+00
     3.564000000000E+05 0.000000000000E+00 0.000000000000E+00 0.000000000000E+00
E36 2019 01 03 02 40 00 7.641752017662E-04-4.447997525858E-12 0.000000000000E+00
     8.000000000000E+01-1.630937500000E+02 2.536891385995E-09 1.042680242057E+00
    -7.700175046921E-06 3.223328385502E-04 8.977949619293E-06 5.440604587555E+03
     3.552000000000E+05-3.725290298462E-09-7.441206863106E-01-1.862645149231E-09
     9.852845749545E-01 1.607500000000E+02-1.646762104834E+00-5.309506876559E-09
    -2.010798043524E-10 2.580000000000E+02 2.034000000000E+03 0.000000000000E+00
     3.120000000000E+00 5.600000000000E+01 1.164153218269E-09 0.000000000000E+00
     3.564000000000E+05 0.000000000000E+00 0.000000000000E+00 0.000000000000E+00
E01 2019 01 03 02 40 00-5.125773022883E-04-8.128608897096E-12 0.000000000000E+00
     8.000000000000E+01 1.925000000000E+02 2.641181444380E-09-1.555548505742E+00
     8.815899491310E-06 1.190898474306E-04 7.476657629013E-06 5.440626844406E+03
     3.552000000000E+05-9.313225746155E-09-2.824531934235E+00-6.519258022308E-08
     9.903246408021E-01 1.953750000000E+02-8.814083899916E-01-5.450941339301E-09
     3.039412318009E-10 5.210000000000E+02 2.034000000000E+03 0.000000000000E+00
     3.120000000000E+00 0.000000000000E+00-4.889443516731E-09-5.355104804039E-09
     3.564250000000E+05 0.000000000000E+00 0.000000000000E+00 0.000000000000E+00
E02 2019 01 03 02 40 00 4.174275090918E-05 1.548983163957E-12 0.000000000000E+00
     8.000000000000E+01 1.813437500000E+02 2.672611324989E-09 1.003933670301E+00
     8.376315236092E-06 2.657622098923E-04 5.977228283882E-06 5.440622503281E+03
     3.552000000000E+05 3.352761268616E-08-2.824565086885E+00 5.215406417847E-08
     9.903338074468E-01 2.297187500000E+02-3.010087015121E-01-5.412725461742E-09
     2.710827202548E-10 5.210000000000E+02 2.034000000000E+03 0.000000000000E+00
     3.120000000000E+00 0.000000000000E+00-6.053596735001E-09-7.217749953270E-09
     3.564250000000E+05 0.000000000000E+00 0.000000000000E+00 0.000000000000E+00
E03 2019 01 03 02 00 00-1.178630045615E-04-4.234834705130E-12 0.000000000000E+00
     7.600000000000E+01-1.431250000000E+01 3.690510867448E-09 1.866102428805E+00
    -6.519258022308E-07 2.884317655116E-04 4.522502422333E-06 5.440605207443E+03
     3.528000000000E+05 1.490116119385E-08 1.366465817346E+00 2.235174179077E-08
     9.521506054431E-01 2.381562500000E+02 6.287082760861E-01-5.797741499205E-09
    -1.328626771209E-10 5.210000000000E+02 2.034000000000E+03 0.000000000000E+00
     3.120000000000E+00 0.000000000000E+00-1.862645149231E-09-2.328306436539E-09
     3.564250000000E+05 0.000000000000E+00 0.000000000000E+00 0.000000000000E+00
E04 2019 01 03 02 10 00-1.920854556374E-04-7.872813512222E-12 0.000000000000E+00
     7.700000000000E+01-1.606250000000E+01 3.726583798602E-09 3.126474369544E+00
    -7.376074790955E-07 8.422043174505E-05 4.148110747337E-06 5.440605325699E+03
     3.534000000000E+05 3.725290298462E-09 1.366512655594E+00-1.676380634308E-08
     9.521934031115E-01 2.479062500000E+02 1.803376647476E+00-5.843457689182E-09
    -9.643258823294E-11 5.210000000000E+02 2.034000000000E+03 0.000000000000E+00
     3.120000000000E+00 0.000000000000E+00-8.149072527885E-09-9.080395102501E-09
     3.564250000000E+05 0.000000000000E+00 0.000000000000E+00 0.000000000000E+00
